STARLINK-5262           
1 54207U 22141BC  26068.09502373 -.00000984  00000+0 -43736-4 0  9998
2 54207  53.2185 356.3971 0001270 107.8011 252.3120 15.08831755185918
LEMUR-2-AHMED-ASRAR     
1 60576U 24149DN  26068.73265438  .00013045  00000+0  79773-3 0  9992
2 60576  97.7021 152.9847 0001633  18.5035 341.6253 15.10376432 85541
